{"features": [{"geometry": {"coordinates": [40.41565101864123, 35.36718673085282], "type": "Point"}, "properties": {"datetime": "2024-10-04T08:19:10+00:00", "emission": 446.01844972298466, "emission_uncertainty": 85.77085922991202, "fetch": 810.0, "ime": 40.899050295352936, "plume_id": "20241004_081910_00_4001_strip_A", "plume_provider": "carbon_mapper", "plume_provider_id": "tan20241004t081910c00s4001-A", "plume_provider_version": "version:v3;processing_software:cmpro=3.39.1", "plume_quality": "good", "wind_direction_avg": 293.0, "wind_direction_std": 2.4497696466142798, "wind_source": "ecmwf_ifs", "wind_speed_avg": 2.4537037037037037, "wind_speed_std": 0.4196395997638762}, "type": "Feature"}, {"geometry": {"coordinates": [40.374429072479614, 35.35263613411226], "type": "Point"}, "properties": {"datetime": "2024-10-04T08:19:10+00:00", "emission": 947.0600485404332, "emission_uncertainty": 169.6974765345107, "fetch": 1200.0, "ime": 146.95759373903275, "plume_id": "20241004_081910_00_4001_strip_B", "plume_provider": "carbon_mapper", "plume_provider_id": "tan20241004t081910c00s4001-B", "plume_provider_version": "version:v3;processing_software:cmpro=3.39.1", "plume_quality": "good", "wind_direction_avg": 296.99969522011384, "wind_direction_std": 2.1604388616365844, "wind_source": "ecmwf_ifs", "wind_speed_avg": 2.1481481481481484, "wind_speed_std": 0.3638311611923796}, "type": "Feature"}, {"geometry": {"coordinates": [40.36805280830137, 35.349657744379954], "type": "Point"}, "properties": {"datetime": "2024-10-04T08:19:10+00:00", "emission": 173.82907339820156, "emission_uncertainty": 62.56613448371726, "fetch": 180.0, "ime": 4.046021535992622, "plume_id": "20241004_081910_00_4001_strip_C", "plume_provider": "carbon_mapper", "plume_provider_id": "tan20241004t081910c00s4001-C", "plume_provider_version": "version:v3;processing_software:cmpro=3.39.1", "plume_quality": "questionable", "wind_direction_avg": 296.99969522011384, "wind_direction_std": 2.1604388616365844, "wind_source": "ecmwf_ifs", "wind_speed_avg": 2.1481481481481484, "wind_speed_std": 0.3638311611923796}, "type": "Feature"}, {"geometry": {"coordinates": [40.33764705703558, 35.35218300790578], "type": "Point"}, "properties": {"datetime": "2024-10-04T08:19:10+00:00", "emission": 3188.9326914034637, "emission_uncertainty": 389.65125891777404, "fetch": 1020.0, "ime": 458.1283584833145, "plume_id": "20241004_081910_00_4001_strip_D", "plume_provider": "carbon_mapper", "plume_provider_id": "tan20241004t081910c00s4001-D", "plume_provider_version": "version:v3;processing_software:cmpro=3.39.1", "plume_quality": "questionable", "wind_direction_avg": 301.99847470611667, "wind_direction_std": 3.5598846830310937, "wind_source": "ecmwf_ifs", "wind_speed_avg": 1.9722222222222223, "wind_speed_std": 0.20786985482077452}, "type": "Feature"}, {"geometry": {"coordinates": [40.28194248407425, 35.34725695746579], "type": "Point"}, "properties": {"datetime": "2024-10-04T08:19:10+00:00", "emission": 1150.2740824961847, "emission_uncertainty": 178.634618439535, "fetch": 1290.0, "ime": 208.99346005916595, "plume_id": "20241004_081910_00_4001_strip_E", "plume_provider": "carbon_mapper", "plume_provider_id": "tan20241004t081910c00s4001-E", "plume_provider_version": "version:v3;processing_software:cmpro=3.39.1", "plume_quality": "questionable", "wind_direction_avg": 301.99847470611667, "wind_direction_std": 3.5598846830310937, "wind_source": "ecmwf_ifs", "wind_speed_avg": 1.9722222222222223, "wind_speed_std": 0.20786985482077452}, "type": "Feature"}, {"geometry": {"coordinates": [40.2798392309557, 35.346580635620086], "type": "Point"}, "properties": {"datetime": "2024-10-04T08:19:10+00:00", "emission": 1151.9470433845663, "emission_uncertainty": 151.14532932352273, "fetch": 1320.0, "ime": 214.16480243206024, "plume_id": "20241004_081910_00_4001_strip_F", "plume_provider": "carbon_mapper", "plume_provider_id": "tan20241004t081910c00s4001-F", "plume_provider_version": "version:v3;processing_software:cmpro=3.39.1", "plume_quality": "questionable", "wind_direction_avg": 301.99847470611667, "wind_direction_std": 3.5598846830310937, "wind_source": "ecmwf_ifs", "wind_speed_avg": 1.9722222222222223, "wind_speed_std": 0.20786985482077452}, "type": "Feature"}, {"geometry": {"coordinates": [40.260481985074506, 35.3438741493554], "type": "Point"}, "properties": {"datetime": "2024-10-04T08:19:10+00:00", "emission": 594.9185606056735, "emission_uncertainty": 78.25054881195972, "fetch": 840.0, "ime": 70.38473111391068, "plume_id": "20241004_081910_00_4001_strip_G", "plume_provider": "carbon_mapper", "plume_provider_id": "tan20241004t081910c00s4001-G", "plume_provider_version": "version:v3;processing_software:cmpro=3.39.1", "plume_quality": "good", "wind_direction_avg": 301.99847470611667, "wind_direction_std": 3.5598846830310937, "wind_source": "ecmwf_ifs", "wind_speed_avg": 1.9722222222222223, "wind_speed_std": 0.20786985482077452}, "type": "Feature"}, {"geometry": {"coordinates": [40.416478944689175, 35.31547695370409], "type": "Point"}, "properties": {"datetime": "2024-10-04T08:19:10+00:00", "emission": 1231.0594314999053, "emission_uncertainty": 236.8129256787216, "fetch": 1350.0, "ime": 214.9047714471817, "plume_id": "20241004_081910_00_4001_strip_H", "plume_provider": "carbon_mapper", "plume_provider_id": "tan20241004t081910c00s4001-H", "plume_provider_version": "version:v3;processing_software:cmpro=3.39.1", "plume_quality": "good", "wind_direction_avg": 296.99969522011384, "wind_direction_std": 2.1604388616365844, "wind_source": "ecmwf_ifs", "wind_speed_avg": 2.1481481481481484, "wind_speed_std": 0.3638311611923796}, "type": "Feature"}, {"geometry": {"coordinates": [40.44404180741637, 35.30695662855153], "type": "Point"}, "properties": {"datetime": "2024-10-04T08:19:10+00:00", "emission": 1373.7274397004792, "emission_uncertainty": 262.7348057281137, "fetch": 1290.0, "ime": 229.15194791555405, "plume_id": "20241004_081910_00_4001_strip_I", "plume_provider": "carbon_mapper", "plume_provider_id": "tan20241004t081910c00s4001-I", "plume_provider_version": "version:v3;processing_software:cmpro=3.39.1", "plume_quality": "good", "wind_direction_avg": 296.99969522011384, "wind_direction_std": 2.1604388616365844, "wind_source": "ecmwf_ifs", "wind_speed_avg": 2.1481481481481484, "wind_speed_std": 0.3638311611923796}, "type": "Feature"}, {"geometry": {"coordinates": [40.43528803344509, 35.296975480595876], "type": "Point"}, "properties": {"datetime": "2024-10-04T08:19:10+00:00", "emission": 977.1641884909735, "emission_uncertainty": 199.5368316504372, "fetch": 510.0, "ime": 64.44229346513748, "plume_id": "20241004_081910_00_4001_strip_J", "plume_provider": "carbon_mapper", "plume_provider_id": "tan20241004t081910c00s4001-J", "plume_provider_version": "version:v3;processing_software:cmpro=3.39.1", "plume_quality": "questionable", "wind_direction_avg": 296.99969522011384, "wind_direction_std": 2.1604388616365844, "wind_source": "ecmwf_ifs", "wind_speed_avg": 2.1481481481481484, "wind_speed_std": 0.3638311611923796}, "type": "Feature"}, {"geometry": {"coordinates": [40.42527274002714, 35.29883299508192], "type": "Point"}, "properties": {"datetime": "2024-10-04T08:19:10+00:00", "emission": 366.0067021581862, "emission_uncertainty": 85.8930474484358, "fetch": 600.0, "ime": 28.397071719169617, "plume_id": "20241004_081910_00_4001_strip_K", "plume_provider": "carbon_mapper", "plume_provider_id": "tan20241004t081910c00s4001-K", "plume_provider_version": "version:v3;processing_software:cmpro=3.39.1", "plume_quality": "good", "wind_direction_avg": 296.99969522011384, "wind_direction_std": 2.1604388616365844, "wind_source": "ecmwf_ifs", "wind_speed_avg": 2.1481481481481484, "wind_speed_std": 0.3638311611923796}, "type": "Feature"}, {"geometry": {"coordinates": [40.315729188618775, 35.38365798250351], "type": "Point"}, "properties": {"datetime": "2024-10-04T08:19:10+00:00", "emission": 149.55185692117672, "emission_uncertainty": 38.95052665218042, "fetch": 330.0, "ime": 5.629518568515778, "plume_id": "20241004_081910_00_4001_strip_L", "plume_provider": "carbon_mapper", "plume_provider_id": "tan20241004t081910c00s4001-L", "plume_provider_version": "version:v3;processing_software:cmpro=3.39.1", "plume_quality": "questionable", "wind_direction_avg": 294.0001015623428, "wind_direction_std": 1.4142674144350962, "wind_source": "ecmwf_ifs", "wind_speed_avg": 2.435185185185185, "wind_speed_std": 0.3404588205713007}, "type": "Feature"}], "type": "FeatureCollection"}