{"features": [{"geometry": {"coordinates": [76.65543616984496, 66.44478782588789], "type": "Point"}, "properties": {"datetime": "2025-02-26T06:54:41+00:00", "emission": 1765.1483921443714, "emission_uncertainty": 198.5074232229456, "fetch": 2550.0, "ime": 214.33944761753082, "plume_id": "20250226_065441_00_4001_strip_A", "plume_provider": "carbon_mapper", "plume_provider_id": "tan20250226t065441c00s4001-A", "plume_provider_version": "version:v3;processing_software:cmpro=3.39.1", "plume_quality": "good", "wind_direction_avg": 39.00010156234281, "wind_direction_std": 1.4142674144356115, "wind_source": "ecmwf_ifs", "wind_speed_avg": 5.833333333333333, "wind_speed_std": 0.5813458204571207}, "type": "Feature"}, {"geometry": {"coordinates": [76.8076365119652, 66.40500847925529], "type": "Point"}, "properties": {"datetime": "2025-02-26T06:54:41+00:00", "emission": 4047.4751139386894, "emission_uncertainty": 558.1534060011315, "fetch": 1590.0, "ime": 304.51823806762695, "plume_id": "20250226_065441_00_4001_strip_B", "plume_provider": "carbon_mapper", "plume_provider_id": "tan20250226t065441c00s4001-B", "plume_provider_version": "version:v3;processing_software:cmpro=3.39.1", "plume_quality": "good", "wind_direction_avg": 39.00010156234281, "wind_direction_std": 1.4142674144356115, "wind_source": "ecmwf_ifs", "wind_speed_avg": 5.87037037037037, "wind_speed_std": 0.5967734460860008}, "type": "Feature"}, {"geometry": {"coordinates": [76.81249147898393, 66.3823692470416], "type": "Point"}, "properties": {"datetime": "2025-02-26T06:54:41+00:00", "emission": 1873.4757940489571, "emission_uncertainty": 315.3177943229011, "fetch": 540.0, "ime": 47.87114804983139, "plume_id": "20250226_065441_00_4001_strip_C", "plume_provider": "carbon_mapper", "plume_provider_id": "tan20250226t065441c00s4001-C", "plume_provider_version": "version:v3;processing_software:cmpro=3.39.1", "plume_quality": "good", "wind_direction_avg": 39.00010156234281, "wind_direction_std": 1.4142674144356115, "wind_source": "ecmwf_ifs", "wind_speed_avg": 5.87037037037037, "wind_speed_std": 0.5967734460860008}, "type": "Feature"}, {"geometry": {"coordinates": [76.79059153920383, 66.358820796195], "type": "Point"}, "properties": {"datetime": "2025-02-26T06:54:41+00:00", "emission": 1603.580679942261, "emission_uncertainty": 436.19319304175895, "fetch": 1650.0, "ime": 131.63721999526024, "plume_id": "20250226_065441_00_4001_strip_D", "plume_provider": "carbon_mapper", "plume_provider_id": "tan20250226t065441c00s4001-D", "plume_provider_version": "version:v3;processing_software:cmpro=3.39.1", "plume_quality": "good", "wind_direction_avg": 38.333465001594206, "wind_direction_std": 1.6997666645132412, "wind_source": "ecmwf_ifs", "wind_speed_avg": 5.583333333333333, "wind_speed_std": 0.5196746370519363}, "type": "Feature"}, {"geometry": {"coordinates": [76.86037051503985, 66.4181434661404], "type": "Point"}, "properties": {"datetime": "2025-02-26T06:54:41+00:00", "emission": 17591.410009254756, "emission_uncertainty": 2454.9895741813057, "fetch": 1560.0, "ime": 1298.545723080635, "plume_id": "20250226_065441_00_4001_strip_E", "plume_provider": "carbon_mapper", "plume_provider_id": "tan20250226t065441c00s4001-E", "plume_provider_version": "version:v3;processing_software:cmpro=3.39.1", "plume_quality": "good", "wind_direction_avg": 39.00010156234281, "wind_direction_std": 1.4142674144356115, "wind_source": "ecmwf_ifs", "wind_speed_avg": 5.87037037037037, "wind_speed_std": 0.5967734460860008}, "type": "Feature"}, {"geometry": {"coordinates": [76.86452665079179, 66.41690396903158], "type": "Point"}, "properties": {"datetime": "2025-02-26T06:54:41+00:00", "emission": 16603.391681114834, "emission_uncertainty": 2149.344900925389, "fetch": 1560.0, "ime": 1225.6131398677826, "plume_id": "20250226_065441_00_4001_strip_F", "plume_provider": "carbon_mapper", "plume_provider_id": "tan20250226t065441c00s4001-F", "plume_provider_version": "version:v3;processing_software:cmpro=3.39.1", "plume_quality": "good", "wind_direction_avg": 39.00010156234281, "wind_direction_std": 1.4142674144356115, "wind_source": "ecmwf_ifs", "wind_speed_avg": 5.87037037037037, "wind_speed_std": 0.5967734460860008}, "type": "Feature"}, {"geometry": {"coordinates": [76.6522292263835, 66.46738035235799], "type": "Point"}, "properties": {"datetime": "2025-02-26T06:54:41+00:00", "emission": 663.7178830802441, "emission_uncertainty": 194.33357609463036, "fetch": 240.0, "ime": 7.585347235202789, "plume_id": "20250226_065441_00_4001_strip_G", "plume_provider": "carbon_mapper", "plume_provider_id": "tan20250226t065441c00s4001-G", "plume_provider_version": "version:v3;processing_software:cmpro=3.39.1", "plume_quality": "questionable", "wind_direction_avg": 39.00010156234281, "wind_direction_std": 1.4142674144356115, "wind_source": "ecmwf_ifs", "wind_speed_avg": 5.833333333333333, "wind_speed_std": 0.5813458204571207}, "type": "Feature"}, {"geometry": {"coordinates": [76.7666323358489, 66.41538080487749], "type": "Point"}, "properties": {"datetime": "2025-02-26T06:54:41+00:00", "emission": 1850.624999470181, "emission_uncertainty": 826.516054948701, "fetch": 420.0, "ime": 36.778982639312744, "plume_id": "20250226_065441_00_4001_strip_H", "plume_provider": "carbon_mapper", "plume_provider_id": "tan20250226t065441c00s4001-H", "plume_provider_version": "version:v3;processing_software:cmpro=3.39.1", "plume_quality": "questionable", "wind_direction_avg": 39.00010156234281, "wind_direction_std": 1.4142674144356115, "wind_source": "ecmwf_ifs", "wind_speed_avg": 5.87037037037037, "wind_speed_std": 0.5967734460860008}, "type": "Feature"}], "type": "FeatureCollection"}